[{"OBJECT_NAME":"STARLINK-34498","OBJECT_ID":"2025-129K","EPOCH":"2026-03-09T09:45:49.316256","MEAN_MOTION":14.98328884,"ECCENTRICITY":0.00035194,"INCLINATION":70.0007,"RA_OF_ASC_NODE":75.2252,"ARG_OF_PERICENTER":269.6589,"MEAN_ANOMALY":90.4167,"EPHEMERIS_TYPE":0,"CLASSIFICATION_TYPE":"U","NORAD_CAT_ID":64421,"ELEMENT_SET_NO":999,"REV_AT_EPOCH":4124,"BSTAR":0.00015562698,"MEAN_MOTION_DOT":1.764e-5,"MEAN_MOTION_DDOT":0},{"OBJECT_NAME":"CZ-6A DEB","OBJECT_ID":"2024-140ACJ","EPOCH":"2026-03-09T13:34:40.812960","MEAN_MOTION":14.75825013,"ECCENTRICITY":0.00997158,"INCLINATION":89.1651,"RA_OF_ASC_NODE":293.465,"ARG_OF_PERICENTER":131.8399,"MEAN_ANOMALY":229.139,"EPHEMERIS_TYPE":0,"CLASSIFICATION_TYPE":"U","NORAD_CAT_ID":61818,"ELEMENT_SET_NO":999,"REV_AT_EPOCH":7745,"BSTAR":0.0027745795,"MEAN_MOTION_DOT":0.00020689,"MEAN_MOTION_DDOT":0}]
